COSMOS 2534 [GLONASS-M] 
1 44299U 19030A   26197.64953360  .00000052  00000+0  00000+0 0  9997
2 44299  64.3705 191.6243 0013502 275.0108 146.6615  2.13102191 55554
BEIDOU-3 IGSO-2         
1 44337U 19035A   26200.48031866 -.00000113  00000+0  00000+0 0  9999
2 44337  55.2515 158.5787 0039252 216.3140 213.5484  1.00256316 25991
NAVSTAR 78 (USA 293)    
1 44506U 19056A   26200.47651426 -.00000106  00000+0  00000+0 0  9991
2 44506  55.6197 329.8590 0063616 198.2329 104.3583  2.00570295 50713
BEIDOU-3 M24            
1 44542U 19061A   26199.92270352  .00000063  00000+0  00000+0 0  9990
2 44542  54.3974 181.6576 0008660 359.8499   0.1236  1.86229160 46382
BEIDOU-3 M23            
1 44543U 19061B   26200.32581567  .00000067  00000+0  00000+0 0  9995
2 44543  54.3960 181.6120 0005988 341.4522 200.1807  1.86227503 46393
EUTELSAT 5 WEST B       
1 44624U 19067A   26200.33422237 -.00000047  00000+0  00000+0 0  9999
2 44624   0.0774 321.1509 0003125 156.5233 294.7572  1.00271304 24759
BEIDOU-3 M22            
1 44793U 19078A   26194.39343167 -.00000062  00000+0  00000+0 0  9997
2 44793  53.9106 298.9058 0005750  50.3045 309.7753  1.86227300 45134
BEIDOU-3 M21            
1 44794U 19078B   26199.90291325 -.00000091  00000+0  00000+0 0  9990
2 44794  53.8780 298.6712 0003572  50.0819 309.9888  1.86227565 45248
COSMOS 2544 [GLONASS-M] 
1 44850U 19088A   26199.46983574 -.00000034  00000+0  00000+0 0  9996
2 44850  65.5825  72.6872 0012069 253.1626 106.7768  2.13102896 51383
BEIDOU-3 M19            
1 44864U 19090A   26200.30539355 -.00000073  00000+0  00000+0 0  9997
2 44864  56.5872  61.7289 0016607 297.5472 169.9419  1.86231477 44837
BEIDOU-3 M20            
1 44865U 19090B   26199.24902023 -.00000064  00000+0  00000+0 0  9994
2 44865  56.5878  61.7982 0014280 312.4225 256.4049  1.86231410 44795
BEIDOU-3 G2             
1 45344U 20017A   26200.56486778 -.00000146  00000+0  00000+0 0  9991
2 45344   2.9289  47.8051 0001832  58.0965 114.8207  1.00272464 23581
COSMOS 2545 [GLONASS-M] 
1 45358U 20018A   26200.60328904 -.00000080  00000+0  00000+0 0  9995
2 45358  64.3337 311.2795 0009726 229.7423 130.1960  2.13102333 49353
BEIDOU-3 G3             
1 45807U 20040A   26199.71551705 -.00000361  00000+0  00000+0 0  9997
2 45807   2.5232  67.4992 0002227 309.4166 287.6963  1.00274773 22386
NAVSTAR 79 (USA 304)    
1 45854U 20041A   26200.62501875 -.00000088  00000+0  00000+0 0  9992
2 45854  56.6915  27.6853 0065427 204.6784 142.1000  2.00557943 44681
GALAXY 30 (G-30)        
1 46114U 20056C   26200.52428074  .00000032  00000+0  00000+0 0  9994
2 46114   0.0186  56.1267 0002247  62.9342 241.9916  1.00273013 21610
COSMOS 2547 [GLONASS-K] 
1 46805U 20075A   26196.56966866  .00000054  00000+0  00000+0 0  9990
2 46805  64.6014 191.5282 0009458 239.8249 120.0839  2.13099910 44518
NAVSTAR 80 (USA 309)    
1 46826U 20078A   26200.28281041  .00000053  00000+0  00000+0 0  9995
2 46826  53.9767 209.4765 0074642 207.9275 229.2387  2.00565035 42154
NAVSTAR 81 (USA 319)    
1 48859U 21054A   26200.41642062 -.00000107  00000+0  00000+0 0  9998
2 48859  55.1572 331.1637 0026540 228.5722 131.4265  2.00567030 37409
QZS-1R (MICHIBIKI-1R)   
1 49336U 21096A   26199.57058939 -.00000316  00000+0  00000+0 0  9995
2 49336  37.5244  79.1164 0755440 272.2947 281.6932  1.00244289 17322
GSAT0223 (GALILEO 27)   
1 49809U 21116A   26200.25522819 -.00000106  00000+0  00000+0 0  9991
2 49809  57.1491 340.8090 0002472 195.0524 165.6739  1.70476276 28731
GSAT0224 (GALILEO 28)   
1 49810U 21116B   26199.49228223 -.00000105  00000+0  00000+0 0  9997
2 49810  57.1493 340.8281 0001875 182.1196 183.0012  1.70476262 28749
COSMOS 2557 [GLONASS-K] 
1 52984U 22075A   26196.73380763 -.00000064  00000+0  00000+0 0  9994
2 52984  64.2802 313.4798 0010855 271.2186  88.6706  2.13102146 31327
COSMOS 2559 [GLONASS-K] 
1 54031U 22130A   26200.30760002 -.00000079  00000+0  00000+0 0  9994
2 54031  64.2502 313.4360 0013149 181.4640 178.5529  2.13101739 29371
COSMOS 2564 [GLONASS-M] 
1 54377U 22161A   26200.15069211  .00000072  00000+0  00000+0 0  9990
2 54377  64.7441 191.6506 0012193 224.8358 135.0652  2.13102039 28317
NAVSTAR 82 (USA 343)    
1 55268U 23009A   26200.49400036  .00000034  00000+0  00000+0 0  9991
2 55268  55.1242 147.2489 0005127 342.6397 112.0717  2.00569391 25899
BEIDOU-3 G4             
1 56564U 23066A   26200.63030997 -.00000285  00000+0  00000+0 0  9994
2 56564   0.4569 340.2148 0005029 184.3689 139.8112  1.00271397 11714
NVS-01 (IRNSS-1J)       
1 56759U 23076A   26200.57466115 -.00000339  00000+0  00000+0 0  9999
2 56759   2.0912 242.8628 0003029  19.1327  11.7007  1.00276766 11448
COSMOS 2569 [GLONASS-K2]
1 57517U 23114A   26200.16299155 -.00000042  00000+0  00000+0 0  9999
2 57517  65.3205  71.5424 0009529 295.6205  64.3510  2.13103813 22943
BEIDOU-3 M28            
1 58654U 23207A   26198.90592297 -.00000063  00000+0  00000+0 0  9999
2 58654  55.7801  61.2668 0002336   7.0710 353.0002  1.86229739 17417
BEIDOU-3 M26            
1 58655U 23207B   26199.24037519 -.00000066  00000+0  00000+0 0  9992
2 58655  55.7828  61.2421 0001836 324.6649  35.3897  1.86229724 17402
